[
  {
    "OBJECT_NAME": "STARLINK-5096",
    "OBJECT_ID": "22125AU",
    "EPOCH": "2025-11-11T05:15:18.424800",
    "MEAN_MOTION": 15.08841501,
    "ECCENTRICITY": 0.0001705,
    "INCLINATION": 53.2179,
    "RA_OF_ASC_NODE": 25.5275,
    "ARG_OF_PERICENTER": 104.2425,
    "MEAN_ANOMALY": 255.8757,
    "EPHEMERIS_TYPE": 0,
    "CLASSIFICATION_TYPE": "U",
    "NORAD_CAT_ID": 54006,
    "ELEMENT_SET_NO": 999,
    "REV_AT_EPOCH": 17157,
    "BSTAR": 0.00010002999999999999,
    "MEAN_MOTION_DOT": 1.304e-05,
    "MEAN_MOTION_DDOT": 0.0,
    "TLE_LINE1": "1 54006U 22125AU  25315.21896325  .00001304  00000+0  10003-3 0  9993",
    "TLE_LINE2": "2 54006  53.2179  25.5275 0001705 104.2425 255.8757 15.08841501171574",
    "COMMENT": "Grouped by shell and plane from TLE"
  },
  {
    "OBJECT_NAME": "STARLINK-5132",
    "OBJECT_ID": "22125AV",
    "EPOCH": "2025-11-11T03:50:31.834752",
    "MEAN_MOTION": 15.08841569,
    "ECCENTRICITY": 0.0001386,
    "INCLINATION": 53.2185,
    "RA_OF_ASC_NODE": 25.8649,
    "ARG_OF_PERICENTER": 81.0087,
    "MEAN_ANOMALY": 279.1062,
    "EPHEMERIS_TYPE": 0,
    "CLASSIFICATION_TYPE": "U",
    "NORAD_CAT_ID": 54007,
    "ELEMENT_SET_NO": 999,
    "REV_AT_EPOCH": 17157,
    "BSTAR": 0.0,
    "MEAN_MOTION_DOT": -8.84e-06,
    "MEAN_MOTION_DDOT": 0.0,
    "TLE_LINE1": "1 54007U 22125AV  25315.16009068 -.00000884  00000+0 -37432-4 0  9998",
    "TLE_LINE2": "2 54007  53.2185  25.8649 0001386  81.0087 279.1062 15.08841569171573",
    "COMMENT": "Grouped by shell and plane from TLE"
  },
  {
    "OBJECT_NAME": "STARLINK-5099",
    "OBJECT_ID": "22125AX",
    "EPOCH": "2025-11-11T05:20:35.778912",
    "MEAN_MOTION": 15.08854154,
    "ECCENTRICITY": 9.56e-05,
    "INCLINATION": 53.2192,
    "RA_OF_ASC_NODE": 25.5418,
    "ARG_OF_PERICENTER": 81.3665,
    "MEAN_ANOMALY": 278.7435,
    "EPHEMERIS_TYPE": 0,
    "CLASSIFICATION_TYPE": "U",
    "NORAD_CAT_ID": 54009,
    "ELEMENT_SET_NO": 999,
    "REV_AT_EPOCH": 17158,
    "BSTAR": 8.836000000000001e-05,
    "MEAN_MOTION_DOT": 1.119e-05,
    "MEAN_MOTION_DDOT": 0.0,
    "TLE_LINE1": "1 54009U 22125AX  25315.22263633  .00001119  00000+0  88360-4 0  9993",
    "TLE_LINE2": "2 54009  53.2192  25.5418 0000956  81.3665 278.7435 15.08854154171585",
    "COMMENT": "Grouped by shell and plane from TLE"
  },
  {
    "OBJECT_NAME": "STARLINK-5633",
    "OBJECT_ID": "23014V",
    "EPOCH": "2025-11-11T07:21:17.623872",
    "MEAN_MOTION": 14.98329282,
    "ECCENTRICITY": 0.0003017,
    "INCLINATION": 70.0002,
    "RA_OF_ASC_NODE": 22.7784,
    "ARG_OF_PERICENTER": 272.341,
    "MEAN_ANOMALY": 87.7404,
    "EPHEMERIS_TYPE": 0,
    "CLASSIFICATION_TYPE": "U",
    "NORAD_CAT_ID": 55410,
    "ELEMENT_SET_NO": 999,
    "REV_AT_EPOCH": 15383,
    "BSTAR": 0.0005334900000000001,
    "MEAN_MOTION_DOT": 6.278e-05,
    "MEAN_MOTION_DDOT": 0.0,
    "TLE_LINE1": "1 55410U 23014V   25315.30645398  .00006278  00000+0  53349-3 0  9998",
    "TLE_LINE2": "2 55410  70.0002  22.7784 0003017 272.3410  87.7404 14.98329282153834",
    "COMMENT": "Grouped by shell and plane from TLE"
  },
  {
    "OBJECT_NAME": "STARLINK-5060",
    "OBJECT_ID": "23014Y",
    "EPOCH": "2025-11-11T07:15:17.715168",
    "MEAN_MOTION": 14.98335539,
    "ECCENTRICITY": 0.0003009,
    "INCLINATION": 70.0018,
    "RA_OF_ASC_NODE": 22.764,
    "ARG_OF_PERICENTER": 272.4692,
    "MEAN_ANOMALY": 87.6123,
    "EPHEMERIS_TYPE": 0,
    "CLASSIFICATION_TYPE": "U",
    "NORAD_CAT_ID": 55413,
    "ELEMENT_SET_NO": 999,
    "REV_AT_EPOCH": 15383,
    "BSTAR": 0.00056408,
    "MEAN_MOTION_DOT": 6.645e-05,
    "MEAN_MOTION_DDOT": 0.0,
    "TLE_LINE1": "1 55413U 23014Y   25315.30228837  .00006645  00000+0  56408-3 0  9993",
    "TLE_LINE2": "2 55413  70.0018  22.7640 0003009 272.4692  87.6123 14.98335539153838",
    "COMMENT": "Grouped by shell and plane from TLE"
  },
  {
    "OBJECT_NAME": "STARLINK-5620",
    "OBJECT_ID": "23014Z",
    "EPOCH": "2025-11-11T06:03:10.795392",
    "MEAN_MOTION": 14.98333138,
    "ECCENTRICITY": 0.0002988,
    "INCLINATION": 70.0005,
    "RA_OF_ASC_NODE": 22.9912,
    "ARG_OF_PERICENTER": 267.3977,
    "MEAN_ANOMALY": 92.684,
    "EPHEMERIS_TYPE": 0,
    "CLASSIFICATION_TYPE": "U",
    "NORAD_CAT_ID": 55414,
    "ELEMENT_SET_NO": 999,
    "REV_AT_EPOCH": 15382,
    "BSTAR": 3.6265e-05,
    "MEAN_MOTION_DOT": 3.4e-06,
    "MEAN_MOTION_DDOT": 0.0,
    "TLE_LINE1": "1 55414U 23014Z   25315.25220828  .00000340  00000+0  36265-4 0  9996",
    "TLE_LINE2": "2 55414  70.0005  22.9912 0002988 267.3977  92.6840 14.98333138153827",
    "COMMENT": "Grouped by shell and plane from TLE"
  },
  {
    "OBJECT_NAME": "STARLINK-5624",
    "OBJECT_ID": "23014AB",
    "EPOCH": "2025-11-11T06:15:12.142944",
    "MEAN_MOTION": 14.98331546,
    "ECCENTRICITY": 0.0002941,
    "INCLINATION": 70.0028,
    "RA_OF_ASC_NODE": 23.0197,
    "ARG_OF_PERICENTER": 268.7632,
    "MEAN_ANOMALY": 91.319,
    "EPHEMERIS_TYPE": 0,
    "CLASSIFICATION_TYPE": "U",
    "NORAD_CAT_ID": 55416,
    "ELEMENT_SET_NO": 999,
    "REV_AT_EPOCH": 15382,
    "BSTAR": 6.7402e-05,
    "MEAN_MOTION_DOT": 7.11e-06,
    "MEAN_MOTION_DDOT": 0.0,
    "TLE_LINE1": "1 55416U 23014AB  25315.26055721  .00000711  00000+0  67402-4 0  9996",
    "TLE_LINE2": "2 55416  70.0028  23.0197 0002941 268.7632  91.3190 14.98331546153828",
    "COMMENT": "Grouped by shell and plane from TLE"
  },
  {
    "OBJECT_NAME": "STARLINK-5030",
    "OBJECT_ID": "23014AD",
    "EPOCH": "2025-11-11T06:27:13.409280",
    "MEAN_MOTION": 14.98332656,
    "ECCENTRICITY": 0.0003013,
    "INCLINATION": 70.0007,
    "RA_OF_ASC_NODE": 23.0483,
    "ARG_OF_PERICENTER": 268.6873,
    "MEAN_ANOMALY": 91.3941,
    "EPHEMERIS_TYPE": 0,
    "CLASSIFICATION_TYPE": "U",
    "NORAD_CAT_ID": 55418,
    "ELEMENT_SET_NO": 999,
    "REV_AT_EPOCH": 15382,
    "BSTAR": 9.390800000000001e-05,
    "MEAN_MOTION_DOT": 1.028e-05,
    "MEAN_MOTION_DDOT": 0.0,
    "TLE_LINE1": "1 55418U 23014AD  25315.26890520  .00001028  00000+0  93908-4 0  9994",
    "TLE_LINE2": "2 55418  70.0007  23.0483 0003013 268.6873  91.3941 14.98332656153829",
    "COMMENT": "Grouped by shell and plane from TLE"
  },
  {
    "OBJECT_NAME": "STARLINK-5629",
    "OBJECT_ID": "23014AE",
    "EPOCH": "2025-11-11T06:09:11.451456",
    "MEAN_MOTION": 14.9833007,
    "ECCENTRICITY": 0.0003079,
    "INCLINATION": 70.0004,
    "RA_OF_ASC_NODE": 23.0054,
    "ARG_OF_PERICENTER": 267.8244,
    "MEAN_ANOMALY": 92.2562,
    "EPHEMERIS_TYPE": 0,
    "CLASSIFICATION_TYPE": "U",
    "NORAD_CAT_ID": 55419,
    "ELEMENT_SET_NO": 999,
    "REV_AT_EPOCH": 15382,
    "BSTAR": 4.1835e-05,
    "MEAN_MOTION_DOT": 4.06e-06,
    "MEAN_MOTION_DDOT": 0.0,
    "TLE_LINE1": "1 55419U 23014AE  25315.25638254  .00000406  00000+0  41835-4 0  9999",
    "TLE_LINE2": "2 55419  70.0004  23.0054 0003079 267.8244  92.2562 14.98330070153823",
    "COMMENT": "Grouped by shell and plane from TLE"
  },
  {
    "OBJECT_NAME": "STARLINK-5598",
    "OBJECT_ID": "23014AG",
    "EPOCH": "2025-11-11T06:21:12.651264",
    "MEAN_MOTION": 14.98333437,
    "ECCENTRICITY": 0.0003013,
    "INCLINATION": 70.0005,
    "RA_OF_ASC_NODE": 23.0341,
    "ARG_OF_PERICENTER": 268.8832,
    "MEAN_ANOMALY": 91.1982,
    "EPHEMERIS_TYPE": 0,
    "CLASSIFICATION_TYPE": "U",
    "NORAD_CAT_ID": 55421,
    "ELEMENT_SET_NO": 999,
    "REV_AT_EPOCH": 15382,
    "BSTAR": 6.5751e-05,
    "MEAN_MOTION_DOT": 6.92e-06,
    "MEAN_MOTION_DDOT": 0.0,
    "TLE_LINE1": "1 55421U 23014AG  25315.26472976  .00000692  00000+0  65751-4 0  9990",
    "TLE_LINE2": "2 55421  70.0005  23.0341 0003013 268.8832  91.1982 14.98333437153822",
    "COMMENT": "Grouped by shell and plane from TLE"
  },
  {
    "OBJECT_NAME": "STARLINK-5006",
    "OBJECT_ID": "23014AH",
    "EPOCH": "2025-11-11T07:27:17.465184",
    "MEAN_MOTION": 14.98335941,
    "ECCENTRICITY": 0.0003038,
    "INCLINATION": 70.0008,
    "RA_OF_ASC_NODE": 22.7902,
    "ARG_OF_PERICENTER": 271.9107,
    "MEAN_ANOMALY": 88.1704,
    "EPHEMERIS_TYPE": 0,
    "CLASSIFICATION_TYPE": "U",
    "NORAD_CAT_ID": 55422,
    "ELEMENT_SET_NO": 999,
    "REV_AT_EPOCH": 15383,
    "BSTAR": 0.0001031,
    "MEAN_MOTION_DOT": 1.138e-05,
    "MEAN_MOTION_DDOT": 0.0,
    "TLE_LINE1": "1 55422U 23014AH  25315.31061881  .00001138  00000+0  10310-3 0  9992",
    "TLE_LINE2": "2 55422  70.0008  22.7902 0003038 271.9107  88.1704 14.98335941153833",
    "COMMENT": "Grouped by shell and plane from TLE"
  },
  {
    "OBJECT_NAME": "STARLINK-5068",
    "OBJECT_ID": "23014AJ",
    "EPOCH": "2025-11-11T06:45:15.359328",
    "MEAN_MOTION": 14.98338905,
    "ECCENTRICITY": 0.0003082,
    "INCLINATION": 70.002,
    "RA_OF_ASC_NODE": 23.0908,
    "ARG_OF_PERICENTER": 271.1225,
    "MEAN_ANOMALY": 88.9581,
    "EPHEMERIS_TYPE": 0,
    "CLASSIFICATION_TYPE": "U",
    "NORAD_CAT_ID": 55423,
    "ELEMENT_SET_NO": 999,
    "REV_AT_EPOCH": 15382,
    "BSTAR": 0.00013993,
    "MEAN_MOTION_DOT": 1.577e-05,
    "MEAN_MOTION_DDOT": 0.0,
    "TLE_LINE1": "1 55423U 23014AJ  25315.28142777  .00001577  00000+0  13993-3 0  9990",
    "TLE_LINE2": "2 55423  70.0020  23.0908 0003082 271.1225  88.9581 14.98338905153823",
    "COMMENT": "Grouped by shell and plane from TLE"
  },
  {
    "OBJECT_NAME": "STARLINK-5615",
    "OBJECT_ID": "23014AL",
    "EPOCH": "2025-11-11T06:33:14.090400",
    "MEAN_MOTION": 14.98331808,
    "ECCENTRICITY": 0.0003037,
    "INCLINATION": 70.0007,
    "RA_OF_ASC_NODE": 23.0647,
    "ARG_OF_PERICENTER": 268.1269,
    "MEAN_ANOMALY": 91.9542,
    "EPHEMERIS_TYPE": 0,
    "CLASSIFICATION_TYPE": "U",
    "NORAD_CAT_ID": 55425,
    "ELEMENT_SET_NO": 999,
    "REV_AT_EPOCH": 15382,
    "BSTAR": 2.3857000000000002e-05,
    "MEAN_MOTION_DOT": 1.92e-06,
    "MEAN_MOTION_DDOT": 0.0,
    "TLE_LINE1": "1 55425U 23014AL  25315.27307975  .00000192  00000+0  23857-4 0  9997",
    "TLE_LINE2": "2 55425  70.0007  23.0647 0003037 268.1269  91.9542 14.98331808153820",
    "COMMENT": "Grouped by shell and plane from TLE"
  }
]